[
    {
        "Altitude(m)": 715251.6096719044,
        "Argument of Periapsis(deg)": 0.0034170363559881197,
        "Eccentricity": 0.0,
        "Inclination(deg)": 45.0,
        "Latitude(deg)": -38.8017201224812,
        "Longitude(deg)": 116.68225276899989,
        "Mean Anomaly(deg)": -61.994535005755786,
        "RAAN(deg)": 269.9967744175625,
        "Satellite Name": "Constellation 1 1206",
        "Satellite Number": 1206,
        "Semi-Major Axis(m)": 7083131.272910544,
        "Time(s)": 57
    },
    {
        "Altitude(m)": 715240.9466380196,
        "Argument of Periapsis(deg)": 0.003476984362233526,
        "Eccentricity": 0.0,
        "Inclination(deg)": 45.0,
        "Latitude(deg)": -38.775916851059776,
        "Longitude(deg)": 116.74832811340069,
        "Mean Anomaly(deg)": -61.933833865505854,
        "RAAN(deg)": 269.996717828397,
        "Satellite Name": "Constellation 1 1206",
        "Satellite Number": 1206,
        "Semi-Major Axis(m)": 7083131.272910544,
        "Time(s)": 58
    },
    {
        "Altitude(m)": 715230.2668734861,
        "Argument of Periapsis(deg)": 0.003536932368478932,
        "Eccentricity": 0.0,
        "Inclination(deg)": 45.0,
        "Latitude(deg)": -38.75007132281686,
        "Longitude(deg)": 116.81435283134219,
        "Mean Anomaly(deg)": -61.87313272525589,
        "RAAN(deg)": 269.9966612392314,
        "Satellite Name": "Constellation 1 1206",
        "Satellite Number": 1206,
        "Semi-Major Axis(m)": 7083131.272910544,
        "Time(s)": 59
    },
    {
        "Altitude(m)": 715219.5704171081,
        "Argument of Periapsis(deg)": 0.003596880374724337,
        "Eccentricity": 0.0,
        "Inclination(deg)": 45.0,
        "Latitude(deg)": -38.72418360605413,
        "Longitude(deg)": 116.88032725979201,
        "Mean Anomaly(deg)": -61.81243158500606,
        "RAAN(deg)": 269.9966046500658,
        "Satellite Name": "Constellation 1 1206",
        "Satellite Number": 1206,
        "Semi-Major Axis(m)": 7083131.272910544,
        "Time(s)": 60
    },
    {
        "Altitude(m)": 715208.8573077563,
        "Argument of Periapsis(deg)": 0.0036568283809697427,
        "Eccentricity": 0.0,
        "Inclination(deg)": 45.0,
        "Latitude(deg)": -38.69825376905241,
        "Longitude(deg)": 116.94625123180629,
        "Mean Anomaly(deg)": -61.7517304447562,
        "RAAN(deg)": 269.9965480609003,
        "Satellite Name": "Constellation 1 1206",
        "Satellite Number": 1206,
        "Semi-Major Axis(m)": 7083131.272910544,
        "Time(s)": 61
    },
    {
        "Altitude(m)": 715198.1275843544,
        "Argument of Periapsis(deg)": 0.003716776387215149,
        "Eccentricity": 0.0,
        "Inclination(deg)": 45.0,
        "Latitude(deg)": -38.672281880071665,
        "Longitude(deg)": 117.01212474891541,
        "Mean Anomaly(deg)": -61.6910293045062,
        "RAAN(deg)": 269.99649147173466,
        "Satellite Name": "Constellation 1 1206",
        "Satellite Number": 1206,
        "Semi-Major Axis(m)": 7083131.272910544,
        "Time(s)": 62
    },
    {
        "Altitude(m)": 715187.3812858809,
        "Argument of Periapsis(deg)": 0.003776724393460554,
        "Eccentricity": 0.0,
        "Inclination(deg)": 45.0,
        "Latitude(deg)": -38.646268007350635,
        "Longitude(deg)": 117.0779478130256,
        "Mean Anomaly(deg)": -61.63032816425624,
        "RAAN(deg)": 269.99643488256913,
        "Satellite Name": "Constellation 1 1206",
        "Satellite Number": 1206,
        "Semi-Major Axis(m)": 7083131.272910544,
        "Time(s)": 63
    },
    {
        "Altitude(m)": 715176.618451377,
        "Argument of Periapsis(deg)": 0.003836672399705959,
        "Eccentricity": 0.0,
        "Inclination(deg)": 45.0,
        "Latitude(deg)": -38.62021221910615,
        "Longitude(deg)": 117.14372042641732,
        "Mean Anomaly(deg)": -61.56962702400648,
        "RAAN(deg)": 269.99637829340355,
        "Satellite Name": "Constellation 1 1206",
        "Satellite Number": 1206,
        "Semi-Major Axis(m)": 7083131.272910544,
        "Time(s)": 64
    },
    {
        "Altitude(m)": 715165.8391199404,
        "Argument of Periapsis(deg)": 0.003896620405951365,
        "Eccentricity": 0.0,
        "Inclination(deg)": 45.0,
        "Latitude(deg)": -38.59411458353242,
        "Longitude(deg)": 117.20944259174507,
        "Mean Anomaly(deg)": -61.50892588375655,
        "RAAN(deg)": 269.99632170423797,
        "Satellite Name": "Constellation 1 1206",
        "Satellite Number": 1206,
        "Semi-Major Axis(m)": 7083131.272910544,
        "Time(s)": 65
    },
    {
        "Altitude(m)": 715155.0433307169,
        "Argument of Periapsis(deg)": 0.003956568412196771,
        "Eccentricity": 0.0,
        "Inclination(deg)": 45.0,
        "Latitude(deg)": -38.56797516880111,
        "Longitude(deg)": 117.27511431203412,
        "Mean Anomaly(deg)": -61.448224743506586,
        "RAAN(deg)": 269.99626511507245,
        "Satellite Name": "Constellation 1 1206",
        "Satellite Number": 1206,
        "Semi-Major Axis(m)": 7083131.272910544,
        "Time(s)": 66
    },
    {
        "Altitude(m)": 715144.2311229231,
        "Argument of Periapsis(deg)": 0.004016516418442176,
        "Eccentricity": 0.0,
        "Inclination(deg)": 45.0,
        "Latitude(deg)": -38.54179404306049,
        "Longitude(deg)": 117.34073542258314,
        "Mean Anomaly(deg)": -61.3875236032568,
        "RAAN(deg)": 269.9962085259068,
        "Satellite Name": "Constellation 1 1206",
        "Satellite Number": 1206,
        "Semi-Major Axis(m)": 7083131.272910544,
        "Time(s)": 67
    },
    {
        "Altitude(m)": 715133.4025358169,
        "Argument of Periapsis(deg)": 0.004076464424687581,
        "Eccentricity": 0.0,
        "Inclination(deg)": 45.0,
        "Latitude(deg)": -38.515571274435075,
        "Longitude(deg)": 117.40630626335113,
        "Mean Anomaly(deg)": -61.32682246300684,
        "RAAN(deg)": 269.9961519367412,
        "Satellite Name": "Constellation 1 1206",
        "Satellite Number": 1206,
        "Semi-Major Axis(m)": 7083131.272910544,
        "Time(s)": 68
    },
    {
        "Altitude(m)": 715122.5576087266,
        "Argument of Periapsis(deg)": 0.004136412430932987,
        "Eccentricity": 0.0,
        "Inclination(deg)": 45.0,
        "Latitude(deg)": -38.48930693102511,
        "Longitude(deg)": 117.4718266703728,
        "Mean Anomaly(deg)": -61.266121322756895,
        "RAAN(deg)": 269.9960953475757,
        "Satellite Name": "Constellation 1 1206",
        "Satellite Number": 1206,
        "Semi-Major Axis(m)": 7083131.272910544,
        "Time(s)": 69
    },
    {
        "Altitude(m)": 715111.6963810296,
        "Argument of Periapsis(deg)": 0.004196360437178394,
        "Eccentricity": 0.0,
        "Inclination(deg)": 45.0,
        "Latitude(deg)": -38.4630010809062,
        "Longitude(deg)": 117.53729664814627,
        "Mean Anomaly(deg)": -61.205420182507034,
        "RAAN(deg)": 269.9960387584101,
        "Satellite Name": "Constellation 1 1206",
        "Satellite Number": 1206,
        "Semi-Major Axis(m)": 7083131.272910544,
        "Time(s)": 70
    },
    {
        "Altitude(m)": 715100.8188921557,
        "Argument of Periapsis(deg)": 0.004256308443423799,
        "Eccentricity": 0.0,
        "Inclination(deg)": 45.0,
        "Latitude(deg)": -38.43665379212866,
        "Longitude(deg)": 117.60271620153412,
        "Mean Anomaly(deg)": -61.1447190422572,
        "RAAN(deg)": 269.9959821692446,
        "Satellite Name": "Constellation 1 1206",
        "Satellite Number": 1206,
        "Semi-Major Axis(m)": 7083131.272910544,
        "Time(s)": 71
    },
    {
        "Altitude(m)": 715089.9251815976,
        "Argument of Periapsis(deg)": 0.004316256449669204,
        "Eccentricity": 0.0,
        "Inclination(deg)": 45.0,
        "Latitude(deg)": -38.41026513271722,
        "Longitude(deg)": 117.66808533576213,
        "Mean Anomaly(deg)": -61.08401790200719,
        "RAAN(deg)": 269.99592558007896,
        "Satellite Name": "Constellation 1 1206",
        "Satellite Number": 1206,
        "Semi-Major Axis(m)": 7083131.272910544,
        "Time(s)": 72
    },
    {
        "Altitude(m)": 715079.0152889031,
        "Argument of Periapsis(deg)": 0.00437620445591461,
        "Eccentricity": 0.0,
        "Inclination(deg)": 45.0,
        "Latitude(deg)": -38.38383517067065,
        "Longitude(deg)": 117.73340405641743,
        "Mean Anomaly(deg)": -61.02331676175733,
        "RAAN(deg)": 269.9958689909134,
        "Satellite Name": "Constellation 1 1206",
        "Satellite Number": 1206,
        "Semi-Major Axis(m)": 7083131.272910544,
        "Time(s)": 73
    },
    {
        "Altitude(m)": 715068.0892536709,
        "Argument of Periapsis(deg)": 0.004436152462160016,
        "Eccentricity": 0.0,
        "Inclination(deg)": 45.0,
        "Latitude(deg)": -38.357363973960936,
        "Longitude(deg)": 117.79867220135083,
        "Mean Anomaly(deg)": -60.962615621507496,
        "RAAN(deg)": 269.99581240174786,
        "Satellite Name": "Constellation 1 1206",
        "Satellite Number": 1206,
        "Semi-Major Axis(m)": 7083131.272910544,
        "Time(s)": 74
    },
    {
        "Altitude(m)": 715057.147115561,
        "Argument of Periapsis(deg)": 0.0044961004684054215,
        "Eccentricity": 0.0,
        "Inclination(deg)": 45.0,
        "Latitude(deg)": -38.33085161053347,
        "Longitude(deg)": 117.86389011306247,
        "Mean Anomaly(deg)": -60.901914481257535,
        "RAAN(deg)": 269.9957558125823,
        "Satellite Name": "Constellation 1 1206",
        "Satellite Number": 1206,
        "Semi-Major Axis(m)": 7083131.272910544,
        "Time(s)": 75
    }
]